{
  "type": "FeatureCollection",
  "name": "ICIMOD_PDGL_Nepal_Sample",
  "crs": {
    "type": "name",
    "properties": {
      "name": "urn:ogc:def:crs:OGC:1.3:CRS84"
    }
  },
  "features": [
    {
      "type": "Feature",
      "properties": {
        "glims_id": "G086475E27885N",
        "name": "Tsho Rolpa",
        "basin_code": "KOSHI",
        "basin_name": "Koshi Basin",
        "sub_basin": "Tama Koshi",
        "elevation_m": 4580,
        "dam_type": "MORAINE_DAMMED",
        "pdgl_status": "VERY_HIGH",
        "baseline_area_sqkm": 1.54,
        "baseline_volume_mcm": 85.9,
        "freeboard_m": 12.5,
        "moraine_slope_deg": 28.5,
        "downstream_settlements_count": 14,
        "current_risk_score": 0.88,
        "downstream_villages": ["Na", "Bedding", "Chhetchhet", "Simigaon", "Gongar Khola"]
      },
      "geometry": {
        "type": "MultiPolygon",
        "coordinates": [
          [
            [
              [86.4650, 27.8660],
              [86.4780, 27.8655],
              [86.4920, 27.8680],
              [86.4950, 27.8720],
              [86.4880, 27.8715],
              [86.4740, 27.8700],
              [86.4650, 27.8660]
            ]
          ]
        ]
      }
    },
    {
      "type": "Feature",
      "properties": {
        "glims_id": "G086915E27902N",
        "name": "Imja Tsho",
        "basin_code": "KOSHI",
        "basin_name": "Koshi Basin",
        "sub_basin": "Dudh Koshi",
        "elevation_m": 5010,
        "dam_type": "MORAINE_DAMMED",
        "pdgl_status": "VERY_HIGH",
        "baseline_area_sqkm": 1.28,
        "baseline_volume_mcm": 75.8,
        "freeboard_m": 14.2,
        "moraine_slope_deg": 32.0,
        "downstream_settlements_count": 19,
        "current_risk_score": 0.82,
        "downstream_villages": ["Chhukung", "Dingboche", "Pangboche", "Tengboche", "Namche Bazaar"]
      },
      "geometry": {
        "type": "MultiPolygon",
        "coordinates": [
          [
            [
              [86.9120, 27.9040],
              [86.9240, 27.9020],
              [86.9340, 27.9070],
              [86.9320, 27.9140],
              [86.9210, 27.9160],
              [86.9120, 27.9040]
            ]
          ]
        ]
      }
    },
    {
      "type": "Feature",
      "properties": {
        "glims_id": "G084534E28512N",
        "name": "Thulagi Lake",
        "basin_code": "GANDAKI",
        "basin_name": "Gandaki Basin",
        "sub_basin": "Marsyangdi",
        "elevation_m": 4040,
        "dam_type": "MORAINE_DAMMED",
        "pdgl_status": "HIGH",
        "baseline_area_sqkm": 0.94,
        "baseline_volume_mcm": 35.3,
        "freeboard_m": 22.0,
        "moraine_slope_deg": 24.5,
        "downstream_settlements_count": 11,
        "current_risk_score": 0.68,
        "downstream_villages": ["Dharapani", "Tal", "Chamje", "Jagat", "Syange"]
      },
      "geometry": {
        "type": "MultiPolygon",
        "coordinates": [
          [
            [
              [84.5260, 28.5140],
              [84.5360, 28.5120],
              [84.5420, 28.5180],
              [84.5380, 28.5220],
              [84.5290, 28.5210],
              [84.5260, 28.5140]
            ]
          ]
        ]
      }
    },
    {
      "type": "Feature",
      "properties": {
        "glims_id": "G087095E27798N",
        "name": "Lower Barun Lake",
        "basin_code": "KOSHI",
        "basin_name": "Koshi Basin",
        "sub_basin": "Barun / Arun",
        "elevation_m": 4570,
        "dam_type": "MORAINE_DAMMED",
        "pdgl_status": "HIGH",
        "baseline_area_sqkm": 1.72,
        "baseline_volume_mcm": 92.0,
        "freeboard_m": 18.5,
        "moraine_slope_deg": 35.0,
        "downstream_settlements_count": 8,
        "current_risk_score": 0.74,
        "downstream_villages": ["Yangkharca", "Mumbuk", "Tashigaon", "Num"]
      },
      "geometry": {
        "type": "MultiPolygon",
        "coordinates": [
          [
            [
              [87.0920, 27.8020],
              [87.1040, 27.7980],
              [87.1140, 27.8080],
              [87.1100, 27.8160],
              [87.0980, 27.8150],
              [87.0920, 27.8020]
            ]
          ]
        ]
      }
    },
    {
      "type": "Feature",
      "properties": {
        "glims_id": "G082342E29891N",
        "name": "Karnali High-Alpine Glacial Lake",
        "basin_code": "KARNALI",
        "basin_name": "Karnali Basin",
        "sub_basin": "Humla Karnali",
        "elevation_m": 4920,
        "dam_type": "MORAINE_DAMMED",
        "pdgl_status": "MEDIUM",
        "baseline_area_sqkm": 0.68,
        "baseline_volume_mcm": 18.5,
        "freeboard_m": 25.0,
        "moraine_slope_deg": 19.5,
        "downstream_settlements_count": 6,
        "current_risk_score": 0.45,
        "downstream_villages": ["Simikot", "Hilsa", "Yari", "Dharapuri"]
      },
      "geometry": {
        "type": "MultiPolygon",
        "coordinates": [
          [
            [
              [82.3360, 29.8910],
              [82.3440, 29.8890],
              [82.3480, 29.8960],
              [82.3420, 29.8990],
              [82.3360, 29.8910]
            ]
          ]
        ]
      }
    }
  ]
}
